ONEWEB-0063             
1 45448U 20020AA  23292.30564524  .00000438  00000+0  11995-2 0  9997
2 45448  87.8999 214.1327 0001971  85.1924 274.9429 13.11423845175310
ONEWEB-0019             
1 45449U 20020AB  23292.35596129 -.00000398  00000+0 -11586-2 0  9992
2 45449  87.8996 214.1211 0001673  75.1508 284.9805 13.11416215175161
ONEWEB-0094             
1 45450U 20020AC  23292.70120873 -.00000792  00000+0 -20744-2 0  9996
2 45450  87.9200 198.9570 0001822  74.2693 285.8639 13.17645432178372
ONEWEB-0087             
1 45451U 20020AD  23292.31214739  .00000549  00000+0  15139-2 0  9999
2 45451  87.8993 214.1196 0002246  74.5372 285.6004 13.11422502175202
ONEWEB-0082             
1 45452U 20020AE  23292.77152452  .00001098  00000+0  30623-2 0  9998
2 45452  87.9042 214.0132 0002336  72.3733 287.7650 13.11438499175353
ONEWEB-0050             
1 45453U 20020AF  23292.91151215  .00004861  00000+0  39353-3 0  9992
2 45453  87.9961  89.7598 0022640 214.8454 145.1299 14.99349621195599
ONEWEB-0034             
1 45454U 20020AG  23292.33324789  .00000163  00000+0  42308-3 0  9992
2 45454  87.8995 214.1204 0001996  74.9814 285.1535 13.11417140175210
ONEWEB-0060             
1 45455U 20020AH  23292.34136074 -.00000123  00000+0 -38394-3 0  9990
2 45455  87.8993 214.1183 0001991  76.6805 283.4544 13.11415778175170
